{
  "norad_id": 52110,
  "name": "STARLINK-3687",
  "history": [
    {
      "epoch": "2026-04-16T20:24:46.821024Z",
      "apogee_km": 540.6040078489295,
      "perigee_km": 538.6822485293178,
      "latitude_deg": -6.136904908424217e-05,
      "longitude_deg": 116.62143591578763,
      "height_km": 540.6195478016599,
      "semi_major_axis_km": 6917.780128189123,
      "eccentricity": 0.0001389,
      "inclination_deg": 53.2167,
      "raan_deg": 267.8089,
      "arg_perigee_deg": 94.8237,
      "mean_anomaly_deg": 265.2913,
      "mean_motion_rev_day": 15.08872802
    },
    {
      "epoch": "2026-04-17T20:15:36.572256Z",
      "apogee_km": 540.6321642179255,
      "perigee_km": 538.9176289334782,
      "latitude_deg": -1.0821360301532372e-05,
      "longitude_deg": 113.47341018164134,
      "height_km": 540.6723430836033,
      "semi_major_axis_km": 6917.911896575702,
      "eccentricity": 0.00012392,
      "inclination_deg": 53.2178,
      "raan_deg": 263.3475,
      "arg_perigee_deg": 90.1025,
      "mean_anomaly_deg": 270.0109,
      "mean_motion_rev_day": 15.08829692
    },
    {
      "epoch": "2026-04-18T20:06:22.895136Z",
      "apogee_km": 540.5897595514698,
      "perigee_km": 538.8575272463613,
      "latitude_deg": 5.022590963952148e-05,
      "longitude_deg": 110.34261507705679,
      "height_km": 540.6693271107986,
      "semi_major_axis_km": 6917.860643398915,
      "eccentricity": 0.0001252,
      "inclination_deg": 53.2173,
      "raan_deg": 258.889,
      "arg_perigee_deg": 93.299,
      "mean_anomaly_deg": 266.8146,
      "mean_motion_rev_day": 15.0884646
    },
    {
      "epoch": "2026-04-19T16:46:24.180672Z",
      "apogee_km": 540.6091242306975,
      "perigee_km": 538.9764927958886,
      "latitude_deg": 4.653559568015142e-05,
      "longitude_deg": 155.62199054643503,
      "height_km": 540.5948959397992,
      "semi_major_axis_km": 6917.929808513292,
      "eccentricity": 0.000118,
      "inclination_deg": 53.2175,
      "raan_deg": 255.0225,
      "arg_perigee_deg": 83.3964,
      "mean_anomaly_deg": 276.7163,
      "mean_motion_rev_day": 15.08823832
    },
    {
      "epoch": "2026-04-20T10:15:39.107808Z",
      "apogee_km": 540.603519303505,
      "perigee_km": 538.9479244309086,
      "latitude_deg": 5.691805214279856e-06,
      "longitude_deg": -110.67942281995167,
      "height_km": 540.5583525245993,
      "semi_major_axis_km": 6917.9127218672065,
      "eccentricity": 0.00011966,
      "inclination_deg": 53.2176,
      "raan_deg": 251.7515,
      "arg_perigee_deg": 82.1309,
      "mean_anomaly_deg": 277.9819,
      "mean_motion_rev_day": 15.08829422
    },
    {
      "epoch": "2026-04-21T13:17:12.178752Z",
      "apogee_km": 540.5150713276253,
      "perigee_km": 538.9779176151533,
      "latitude_deg": -4.5196191986856547e-05,
      "longitude_deg": -162.2327713176776,
      "height_km": 540.5537285764171,
      "semi_major_axis_km": 6917.883494471389,
      "eccentricity": 0.0001111,
      "inclination_deg": 53.2169,
      "raan_deg": 246.6959,
      "arg_perigee_deg": 83.367,
      "mean_anomaly_deg": 276.7448,
      "mean_motion_rev_day": 15.08838984
    },
    {
      "epoch": "2026-04-22T14:43:22.638144Z",
      "apogee_km": 540.4323725145559,
      "perigee_km": 539.0598645038435,
      "latitude_deg": 3.2310724369373194e-05,
      "longitude_deg": 170.4206736467515,
      "height_km": 540.5437250369541,
      "semi_major_axis_km": 6917.883118509199,
      "eccentricity": 9.92e-05,
      "inclination_deg": 53.2172,
      "raan_deg": 241.9375,
      "arg_perigee_deg": 81.7401,
      "mean_anomaly_deg": 278.3704,
      "mean_motion_rev_day": 15.08839107
    },
    {
      "epoch": "2026-04-23T08:12:37.307808Z",
      "apogee_km": 540.4667135525469,
      "perigee_km": 539.03166724121,
      "latitude_deg": -6.617637436162498e-05,
      "longitude_deg": -95.8785070611927,
      "height_km": 540.6062528410052,
      "semi_major_axis_km": 6917.886190396878,
      "eccentricity": 0.00010372,
      "inclination_deg": 53.2193,
      "raan_deg": 238.6677,
      "arg_perigee_deg": 86.8604,
      "mean_anomaly_deg": 273.2506,
      "mean_motion_rev_day": 15.08838102
    },
    {
      "epoch": "2026-04-24T19:11:05.936064Z",
      "apogee_km": 540.4478685528866,
      "perigee_km": 539.0380046218106,
      "latitude_deg": 7.424585606718946e-05,
      "longitude_deg": 91.52135449136605,
      "height_km": 540.8405183391712,
      "semi_major_axis_km": 6917.879936587348,
      "eccentricity": 0.0001019,
      "inclination_deg": 53.217,
      "raan_deg": 232.1231,
      "arg_perigee_deg": 106.6017,
      "mean_anomaly_deg": 253.5088,
      "mean_motion_rev_day": 15.08840148
    }
  ]
}